[{"OBJECT_NAME":"STARLINK-30383","OBJECT_ID":"2023-134C","EPOCH":"2026-03-09T22:00:01.999584","MEAN_MOTION":15.17137173,"ECCENTRICITY":0.00015199,"INCLINATION":42.9997,"RA_OF_ASC_NODE":195.8091,"ARG_OF_PERICENTER":263.9517,"MEAN_ANOMALY":359.4229,"EPHEMERIS_TYPE":0,"CLASSIFICATION_TYPE":"U","NORAD_CAT_ID":57773,"ELEMENT_SET_NO":999,"REV_AT_EPOCH":572,"BSTAR":0.0041556855,"MEAN_MOTION_DOT":0.00084725,"MEAN_MOTION_DDOT":0},{"OBJECT_NAME":"OBJECT AJ","OBJECT_ID":"2025-313AJ","EPOCH":"2026-03-09T22:21:21.807360","MEAN_MOTION":15.2138311,"ECCENTRICITY":0.00131371,"INCLINATION":97.4064,"RA_OF_ASC_NODE":145.2514,"ARG_OF_PERICENTER":356.4876,"MEAN_ANOMALY":3.6265,"EPHEMERIS_TYPE":0,"CLASSIFICATION_TYPE":"U","NORAD_CAT_ID":67280,"ELEMENT_SET_NO":999,"REV_AT_EPOCH":1085,"BSTAR":0.00031142343,"MEAN_MOTION_DOT":6.931e-5,"MEAN_MOTION_DDOT":0}]
